{
  "type": "FeatureCollection",
  "features": [
    {
      "type": "Feature",
      "properties": {
        "norad_id": 36272,
        "name": "FENGYUN 1C DEB",
        "group": "fengyun-1c-debris",
        "lat": -57.12218739276906,
        "lon": -109.5332664620722,
        "alt_km": 797.4874472086558,
        "timestamp": "2025-12-25T09:48:52.578403+00:00",
        "meta_object_name": "FENGYUN 1C DEB",
        "meta_object_id": "1999-025DWZ",
        "meta_epoch": "2025-12-15T09:29:34.780416",
        "meta_mean_motion": 14.17259115,
        "meta_eccentricity": 0.01679127,
        "meta_inclination": 99.1362,
        "meta_ra_of_asc_node": 225.7589,
        "meta_arg_of_pericenter": 260.5869,
        "meta_mean_anomaly": 97.6289,
        "meta_ephemeris_type": 0,
        "meta_classification_type": "U",
        "meta_norad_cat_id": 36272,
        "meta_element_set_no": 999,
        "meta_rev_at_epoch": 63654,
        "meta_bstar": 0.00052291356,
        "meta_mean_motion_dot": 1.164e-05,
        "meta_mean_motion_ddot": 0,
        "tle_line1": "1 36272U 99025DWZ 25349.39554144  .00001164  00000+0  52291-3 0  9996",
        "tle_line2": "2 36272  99.1362 225.7589 0167912 260.5869  97.6289 14.17259115636543"
      },
      "geometry": {
        "type": "Point",
        "coordinates": [
          -109.5332664620722,
          -57.12218739276906
        ]
      }
    },
    {
      "type": "Feature",
      "properties": {
        "norad_id": 36273,
        "name": "FENGYUN 1C DEB",
        "group": "fengyun-1c-debris",
        "lat": -69.84507490841769,
        "lon": 22.38081712459489,
        "alt_km": 810.11246401069,
        "timestamp": "2025-12-25T09:48:52.578413+00:00",
        "meta_object_name": "FENGYUN 1C DEB",
        "meta_object_id": "1999-025DXA",
        "meta_epoch": "2025-12-10T21:07:00.418080",
        "meta_mean_motion": 14.16564043,
        "meta_eccentricity": 0.0096501,
        "meta_inclination": 99.6045,
        "meta_ra_of_asc_node": 214.1863,
        "meta_arg_of_pericenter": 353.8475,
        "meta_mean_anomaly": 6.1504,
        "meta_ephemeris_type": 0,
        "meta_classification_type": "U",
        "meta_norad_cat_id": 36273,
        "meta_element_set_no": 999,
        "meta_rev_at_epoch": 66207,
        "meta_bstar": 0.00042955,
        "meta_mean_motion_dot": 8.45e-06,
        "meta_mean_motion_ddot": 0,
        "tle_line1": "1 36273U 99025DXA 25344.87986595  .00000845  00000+0  42955-3 0  9995",
        "tle_line2": "2 36273  99.6045 214.1863 0096501 353.8475   6.1504 14.16564043662078"
      },
      "geometry": {
        "type": "Point",
        "coordinates": [
          22.38081712459489,
          -69.84507490841769
        ]
      }
    },
    {
      "type": "Feature",
      "properties": {
        "norad_id": 36274,
        "name": "FENGYUN 1C DEB",
        "group": "fengyun-1c-debris",
        "lat": -44.09107082981598,
        "lon": -114.91472010077375,
        "alt_km": 780.0569436664337,
        "timestamp": "2025-12-25T09:48:52.578423+00:00",
        "meta_object_name": "FENGYUN 1C DEB",
        "meta_object_id": "1999-025DXB",
        "meta_epoch": "2025-12-24T23:29:20.675328",
        "meta_mean_motion": 14.23624847,
        "meta_eccentricity": 0.006315,
        "meta_inclination": 99.1381,
        "meta_ra_of_asc_node": 73.6094,
        "meta_arg_of_pericenter": 196.6447,
        "meta_mean_anomaly": 343.9967,
        "meta_ephemeris_type": 0,
        "meta_classification_type": "U",
        "meta_norad_cat_id": 36274,
        "meta_element_set_no": 999,
        "meta_rev_at_epoch": 63159,
        "meta_bstar": 0.0030628,
        "meta_mean_motion_dot": 7.085e-05,
        "meta_mean_motion_ddot": 0,
        "tle_line1": "1 36274U 99025DXB 25358.97871152  .00007085  00000+0  30628-2 0  9990",
        "tle_line2": "2 36274  99.1381  73.6094 0063150 196.6447 343.9967 14.23624847631592"
      },
      "geometry": {
        "type": "Point",
        "coordinates": [
          -114.91472010077375,
          -44.09107082981598
        ]
      }
    },
    {
      "type": "Feature",
      "properties": {
        "norad_id": 36278,
        "name": "FENGYUN 1C DEB",
        "group": "fengyun-1c-debris",
        "lat": 8.0922676374408,
        "lon": 99.34603663431697,
        "alt_km": 830.2703075098516,
        "timestamp": "2025-12-25T09:48:52.578433+00:00",
        "meta_object_name": "FENGYUN 1C DEB",
        "meta_object_id": "1999-025DXF",
        "meta_epoch": "2025-12-24T12:40:14.200032",
        "meta_mean_motion": 14.17401848,
        "meta_eccentricity": 0.00606079,
        "meta_inclination": 99.1252,
        "meta_ra_of_asc_node": 277.1324,
        "meta_arg_of_pericenter": 257.0871,
        "meta_mean_anomaly": 102.3528,
        "meta_ephemeris_type": 0,
        "meta_classification_type": "U",
        "meta_norad_cat_id": 36278,
        "meta_element_set_no": 999,
        "meta_rev_at_epoch": 93643,
        "meta_bstar": 0.00043605527,
        "meta_mean_motion_dot": 8.52e-06,
        "meta_mean_motion_ddot": 0,
        "tle_line1": "1 36278U 99025DXF 25358.52794213  .00000852  00000+0  43606-3 0  9993",
        "tle_line2": "2 36278  99.1252 277.1324 0060607 257.0871 102.3528 14.17401848936435"
      },
      "geometry": {
        "type": "Point",
        "coordinates": [
          99.34603663431697,
          8.0922676374408
        ]
      }
    },
    {
      "type": "Feature",
      "properties": {
        "norad_id": 36279,
        "name": "FENGYUN 1C DEB",
        "group": "fengyun-1c-debris",
        "lat": 73.0207776627758,
        "lon": -52.668566352137425,
        "alt_km": 810.7068677968919,
        "timestamp": "2025-12-25T09:48:52.578443+00:00",
        "meta_object_name": "FENGYUN 1C DEB",
        "meta_object_id": "1999-025DXG",
        "meta_epoch": "2025-12-24T04:36:30.849408",
        "meta_mean_motion": 14.1473428,
        "meta_eccentricity": 0.00624156,
        "meta_inclination": 98.5623,
        "meta_ra_of_asc_node": 335.7298,
        "meta_arg_of_pericenter": 22.9202,
        "meta_mean_anomaly": 337.4736,
        "meta_ephemeris_type": 0,
        "meta_classification_type": "U",
        "meta_norad_cat_id": 36279,
        "meta_element_set_no": 999,
        "meta_rev_at_epoch": 89201,
        "meta_bstar": 0.00014307987,
        "meta_mean_motion_dot": 2.39e-06,
        "meta_mean_motion_ddot": 0,
        "tle_line1": "1 36279U 99025DXG 25358.19202372  .00000239  00000+0  14308-3 0  9993",
        "tle_line2": "2 36279  98.5623 335.7298 0062415  22.9202 337.4736 14.14734280892011"
      },
      "geometry": {
        "type": "Point",
        "coordinates": [
          -52.668566352137425,
          73.0207776627758
        ]
      }
    },
    {
      "type": "Feature",
      "properties": {
        "norad_id": 36280,
        "name": "FENGYUN 1C DEB",
        "group": "fengyun-1c-debris",
        "lat": -64.7338969344236,
        "lon": -171.00939161589932,
        "alt_km": 903.6341872859002,
        "timestamp": "2025-12-25T09:48:52.578453+00:00",
        "meta_object_name": "FENGYUN 1C DEB",
        "meta_object_id": "1999-025DXH",
        "meta_epoch": "2025-12-24T22:59:16.156896",
        "meta_mean_motion": 14.09776084,
        "meta_eccentricity": 0.0062613,
        "meta_inclination": 98.7659,
        "meta_ra_of_asc_node": 27.633,
        "meta_arg_of_pericenter": 30.8932,
        "meta_mean_anomaly": 87.4685,
        "meta_ephemeris_type": 0,
        "meta_classification_type": "U",
        "meta_norad_cat_id": 36280,
        "meta_element_set_no": 999,
        "meta_rev_at_epoch": 86526,
        "meta_bstar": 0.00090349,
        "meta_mean_motion_dot": 1.574e-05,
        "meta_mean_motion_ddot": 0,
        "tle_line1": "1 36280U 99025DXH 25358.95782589  .00001574  00000+0  90349-3 0  9994",
        "tle_line2": "2 36280  98.7659  27.6330 0062613  30.8932  87.4685 14.09776084865260"
      },
      "geometry": {
        "type": "Point",
        "coordinates": [
          -171.00939161589932,
          -64.7338969344236
        ]
      }
    },
    {
      "type": "Feature",
      "properties": {
        "norad_id": 36281,
        "name": "FENGYUN 1C DEB",
        "group": "fengyun-1c-debris",
        "lat": 79.35079029942408,
        "lon": 160.86642749758798,
        "alt_km": 820.0514075596438,
        "timestamp": "2025-12-25T09:48:52.578463+00:00",
        "meta_object_name": "FENGYUN 1C DEB",
        "meta_object_id": "1999-025DXJ",
        "meta_epoch": "2025-12-20T00:30:26.383680",
        "meta_mean_motion": 13.60294135,
        "meta_eccentricity": 0.02913999,
        "meta_inclination": 99.2595,
        "meta_ra_of_asc_node": 275.5857,
        "meta_arg_of_pericenter": 92.0584,
        "meta_mean_anomaly": 271.3952,
        "meta_ephemeris_type": 0,
        "meta_classification_type": "U",
        "meta_norad_cat_id": 36281,
        "meta_element_set_no": 999,
        "meta_rev_at_epoch": 84616,
        "meta_bstar": 0.00281607,
        "meta_mean_motion_dot": 2.757e-05,
        "meta_mean_motion_ddot": 0,
        "tle_line1": "1 36281U 99025DXJ 25354.02113870  .00002757  00000+0  28161-2 0  9996",
        "tle_line2": "2 36281  99.2595 275.5857 0291399  92.0584 271.3952 13.60294135846169"
      },
      "geometry": {
        "type": "Point",
        "coordinates": [
          160.86642749758798,
          79.35079029942408
        ]
      }
    }
  ]
}